BEIDOU-2 IGSO-1 (C06)   
1 36828U 10036A   24080.70600304 -.00000157  00000+0  00000+0 0  9993
2 36828  54.2453 170.3705 0039737 197.4954 170.8841  1.00252643 50000
BEIDOU-2 G4 (C04)       
1 37210U 10057A   24081.37249797 -.00000123  00000+0  00000+0 0  9994
2 37210   1.6357  67.3592 0005068 207.6144 198.4231  1.00270549 49090
BEIDOU-2 IGSO-2 (C07)   
1 37256U 10068A   24081.54027691 -.00000168  00000+0  00000+0 0  9991
2 37256  49.0396 281.8800 0031702 209.4537 350.9142  1.00278778 48585
BEIDOU-2 IGSO-3 (C08)   
1 37384U 11013A   24080.86254892 -.00000164  00000+0  00000+0 0  9999
2 37384  61.2318  47.9604 0026148 183.2052   6.9919  1.00281376 47452
BEIDOU-2 IGSO-4 (C09)   
1 37763U 11038A   24080.67750947 -.00000147  00000+0  00000+0 0  9999
2 37763  54.5523 172.9604 0121545 227.7272 118.0251  1.00277978 46434
BEIDOU-2 IGSO-5 (C10)   
1 37948U 11073A   24081.48325990 -.00000117  00000+0  00000+0 0  9996
2 37948  49.1705 281.5622 0093907 219.3876 307.8019  1.00271586 44937
BEIDOU-2 G5 (C05)       
1 38091U 12008A   24080.73799365  .00000046  00000+0  00000+0 0  9993
2 38091   1.8611  70.0200 0010257 255.8531 177.3434  1.00268480 44166
BEIDOU-2 M3 (C11)       
1 38250U 12018A   24080.87212325 -.00000089  00000+0  00000+0 0  9990
2 38250  56.3939 332.2794 0021892 268.2088  91.5853  1.86231441 80707
BEIDOU-2 M4 (C12)       
1 38251U 12018B   24081.33966277 -.00000085  00000+0  00000+0 0  9991
2 38251  56.3017 331.5422 0012803 274.8127  85.0878  1.86232184 80715
BEIDOU-2 M6 (C14)       
1 38775U 12050B   24079.43829847  .00000017  00000+0  00000+0 0  9991
2 38775  55.8422  90.1610 0014491 328.2633  31.6919  1.86231206 78048
BEIDOU-2 G6 (C02)       
1 38953U 12059A   24081.61958139 -.00000185  00000+0  00000+0 0  9995
2 38953   2.3362  81.0582 0010865 300.1645 105.4897  1.00272794 41718
BEIDOU-3S IGSO-1S (C31) 
1 40549U 15019A   24081.61675284 -.00000144  00000+0  00000+0 0  9990
2 40549  50.7321 305.2194 0035555 191.7986   0.0359  1.00268762 32879
BEIDOU-3S M2S (C58)     
1 40748U 15037A   24081.00371652 -.00000085  00000+0  00000+0 0  9990
2 40748  55.5366 330.0292 0008866 266.0148  93.9301  1.86233253 58886
BEIDOU-3S M1S (C57)     
1 40749U 15037B   24080.73706336 -.00000086  00000+0  00000+0 0  9992
2 40749  55.5396 330.0252 0006241 348.9541  11.0776  1.86233127 58885
BEIDOU-3S IGSO-2S (C56) 
1 40938U 15053A   24081.47897163 -.00000105  00000+0  00000+0 0  9993
2 40938  50.4963 268.4210 0049121 187.3180 352.2156  1.00283201 31152
BEIDOU-2 IGSO-6 (C13)   
1 41434U 16021A   24077.87827028 -.00000142  00000+0  00000+0 0  9994
2 41434  59.0509  46.2685 0049875 225.5533 314.9820  1.00288275 29231
BEIDOU-2 G7 (C03)       
1 41586U 16037A   24081.55721125 -.00000363  00000+0  00000+0 0  9995
2 41586   1.6964  68.4172 0009567 321.0421 101.2126  1.00271139 28591
BEIDOU-3 M1 (C19)       
1 43001U 17069A   24081.35225211  .00000031  00000+0  00000+0 0  9999
2 43001  55.9950  90.1817 0012522 298.5699  61.3492  1.86231582 43377
BEIDOU-3 M2 (C20)       
1 43002U 17069B   24080.75234407  .00000028  00000+0  00000+0 0  9996
2 43002  55.9938  90.2379 0010025 315.8877  44.0773  1.86231184 43351
BEIDOU-3 M7 (C27)       
1 43107U 18003A   24080.50215702 -.00000089  00000+0  00000+0 0  9999
2 43107  54.9944 330.6761 0004867  55.9738 304.1160  1.86232528 42109
BEIDOU-3 M8 (C28)       
1 43108U 18003B   24080.97882038 -.00000087  00000+0  00000+0 0  9991
2 43108  54.9872 330.6458 0003130 282.4115  77.5985  1.86231032 42128
BEIDOU-3 M4 (C22)       
1 43207U 18018A   24077.12467658 -.00000005  00000+0  00000+0 0  9997
2 43207  55.9504  90.4145 0006842 333.5743  26.4282  1.86231345 41436
BEIDOU-3 M3 (C21)       
1 43208U 18018B   24079.33906184  .00000016  00000+0  00000+0 0  9996
2 43208  55.9516  90.3452 0010109 307.0640  52.8861  1.86231529 41477
BEIDOU-3 M9 (C29)       
1 43245U 18029A   24081.17184074 -.00000082  00000+0  00000+0 0  9994
2 43245  54.8804 328.3688 0001140 356.1171   3.9293  1.86232842 40665
BEIDOU-3 M10 (C30)      
1 43246U 18029B   24080.56467592 -.00000085  00000+0  00000+0 0  9999
2 43246  54.8783 328.4181 0005011   8.9578 351.0966  1.86232862 40638
BEIDOU-2 IGSO-7 (C16)   
1 43539U 18057A   24081.63115479 -.00000164  00000+0  00000+0 0  9996
2 43539  55.1345 170.1332 0072395 232.0021 117.6329  1.00279970 20930
BEIDOU-3 M5 (C23)       
1 43581U 18062A   24079.71236102 -.00000030  00000+0  00000+0 0  9994
2 43581  54.1456 210.1809 0001870 291.7188  68.2186  1.86228719 38377
BEIDOU-3 M6 (C24)       
1 43582U 18062B   24080.11556024 -.00000034  00000+0  00000+0 0  9993
2 43582  54.1450 210.1567 0005582  35.4903 324.5029  1.86229534 38386
BEIDOU-3 M12 (C26)      
1 43602U 18067A   24080.04991225 -.00000035  00000+0  00000+0 0  9990
2 43602  54.2345 208.8325 0007470  29.2743 330.7247  1.86231724 37867
BEIDOU-3 M11 (C25)      
1 43603U 18067B   24080.18379811 -.00000036  00000+0  00000+0 0  9998
2 43603  54.2317 208.7932 0004164  23.2965 336.6794  1.86231570 37891
BEIDOU-3 M13 (C32)      
1 43622U 18072A   24080.14416751  .00000023  00000+0  00000+0 0  9991
2 43622  55.9234  89.8484 0009053 295.1070  64.8425  1.86231401 37408
BEIDOU-3 M14 (C33)      
1 43623U 18072B   24076.78789517 -.00000008  00000+0  00000+0 0  9994
2 43623  55.9220  89.9537 0006597 313.5310  46.4503  1.86231326 37337
BEIDOU-3 M16 (C35)      
1 43647U 18078A   24080.70975438 -.00000084  00000+0  00000+0 0  9996
2 43647  54.7771 328.4909 0008286  15.0628 345.0076  1.86232446 36918
BEIDOU-3 M15 (C34)      
1 43648U 18078B   24080.83891720 -.00000084  00000+0  00000+0 0  9992
2 43648  54.7729 328.4896 0005325  23.1781 336.8920  1.86232303 36938
BEIDOU-3 G1 (C59)       
1 43683U 18085A   24081.64243734 -.00000288  00000+0  00000+0 0  9991
2 43683   1.9781 113.2303 0002524 319.7248 117.9565  1.00272188 19869
BEIDOU-3 M17 (C36)      
1 43706U 18093A   24080.98786008 -.00000039  00000+0  00000+0 0  9992
2 43706  54.2282 210.0695 0007204 284.8201  75.0545  1.86228389 36288
BEIDOU-3 M18 (C37)      
1 43707U 18093B   24080.85389158 -.00000038  00000+0  00000+0 0  9993
2 43707  54.2290 210.0656 0005956 322.3213  37.5915  1.86229852 36299
BEIDOU-3 IGSO-1 (C38)   
1 44204U 19023A   24080.86222596 -.00000198  00000+0  00000+0 0  9990
2 44204  57.5179  46.1456 0020150 216.6380 346.1177  1.00276073 18138
BEIDOU-2 G8 (C01)       
1 44231U 19027A   24081.64646105 -.00000257  00000+0  00000+0 0  9993
2 44231   1.7319  73.2613 0003174 181.4956 302.1548  1.00272014 17882
BEIDOU-3 IGSO-2 (C39)   
1 44337U 19035A   24081.63086247 -.00000162  00000+0  00000+0 0  9998
2 44337  55.1676 166.0365 0032475 205.7962 154.5142  1.00268657 17478
BEIDOU-3 M24 (C46)      
1 44542U 19061A   24079.85017491 -.00000031  00000+0  00000+0 0  9996
2 44542  54.4558 210.3769 0007596   5.4886 354.4764  1.86231162 30532
BEIDOU-3 M23 (C45)      
1 44543U 19061B   24081.52266350 -.00000039  00000+0  00000+0 0  9992
2 44543  54.4540 210.2893 0004401 357.9735 315.4601  1.86231666 30560
BEIDOU-3 IGSO-3 (C40)   
1 44709U 19073A   24080.97483795 -.00000141  00000+0  00000+0 0  9995
2 44709  56.1981 289.6541 0035809 179.6976 180.3413  1.00276462 16253
BEIDOU-3 M22 (C44)      
1 44793U 19078A   24081.30692393 -.00000082  00000+0  00000+0 0  9991
2 44793  54.6248 328.4132 0007264  21.8120 338.2663  1.86232190 29424
BEIDOU-3 M21 (C43)      
1 44794U 19078B   24080.36304394 -.00000086  00000+0  00000+0 0  9992
2 44794  54.5991 328.4239 0005151  16.0145 344.0464  1.86232707 29409
BEIDOU-3 M19 (C41)      
1 44864U 19090A   24080.18887793  .00000023  00000+0  00000+0 0  9993
2 44864  55.8578  90.0225 0019934 280.8470 155.6212  1.86231836 28986
BEIDOU-3 M20 (C42)      
1 44865U 19090B   24080.52750274  .00000025  00000+0  00000+0 0  9997
2 44865  55.8598  90.0444 0017712 292.3565 100.8999  1.86231793 28972
BEIDOU-3 G2 (C60)       
1 45344U 20017A   24081.59211351 -.00000150  00000+0  00000+0 0  9997
2 45344   2.2152  25.9842 0001867 294.6672 152.1348  1.00272140 15065
BEIDOU-3 G3 (C61)       
1 45807U 20040A   24081.55730329 -.00000364  00000+0  00000+0 0  9991
2 45807   0.6500  28.5555 0007409 299.4968 162.5945  1.00277320 13877
BEIDOU-3 G4             
1 56564U 23066A   24080.71430230 -.00000127  00000+0  00000+0 0  9996
2 56564   2.3449 288.2073 0002802 193.7012 113.8815  1.00273874  3186
BEIDOU-3 M25            
1 58654U 23207A   24079.37185677  .00000013  00000+0  00000+0 0  9990
2 58654  55.0384  90.1288 0005075 283.2147  76.7710  1.86232246  1572
BEIDOU-3 M26            
1 58655U 23207B   24080.24452550  .00000020  00000+0  00000+0 0  9994
2 58655  55.0413  90.0842 0005817 269.9841  89.9933  1.86231820  1577
